Full Name,Name 2,Name 3,Address One,Address Two,Telephone,Fax,Email,Website,Region,,
DECOMO N.V.-S.A. ,Bd. Industriel Nijverheidslaan 96 ,7700 Mouscron Moeskroen ,,73040 Spec-chia LE ,,,info@decomo.be ,www.decomo.be,.be,,
ESSE SOLAI SRL ,Strada delle Fornaci 13 ,36031 Dueville VI ,,www.essesolai.it ,,,,www.essesolai.it,.it,,
DLC SRL ,Via Tiziano 19 ,20145 Milano Ml ,,,,,,www.dlc.it,.it,,
ZECCA PREFABBRICATI SPA ,Via dei Molini 22 ,23010 Cosio Valtellino SO ,,www.zecca.com ,,,,www.zecca.com,com,,
SAS PREFABRICADOS DE HORMIGN S.A. ,,PO Torras Y Bages 106 ,,www.sas-sa.es ,,,,www.sas-sa.es,.es,,
PREFABRICADOS LECRIN S.A. ,Ctra. Motril-Granada Km 149 ,18640 Padul - Granada ,,lecrin@prefabricados-lecrin.com ,,,,prefabricados-lecrin.com,com,,
S.A. PACADAR S.A. ,,Arturo Soria 336 - 7a Planta ,,www.pacadar.com ,,,,www.pacadar.com,com,,
KHLER A/S ,Teglvrksvej 1 ,4220 Korsr ,,28971 Grifin - Madrid ,,,,www.kelement.dk,.dk,,
LETH BETON A/S ,Rishjvej 26 ,7755 Bedsted Thy ,,45200 Illescas -Toledo ,,,,www.lethbeton.dk,.dk,,
MIDTJYDSK BETONVARE- OG BETONELEMENTFABRIK A/S ,,,,13250 Daimiel - Ciudad Real ,,F. +45 9712 3609 ,,www.midtjydskbeton.dk,.dk,,
PERSTRUP BETON INDUSTRI A/S ,Kringelen 4-6 ,8560 Kolind ,,P.l. Valdeferrin ,,,,www.perstrup.dk,.dk,,
PL BETON A/S ,Mulebyvej 40 ,3700 Rnne ,,Zaragoza ,,,,www.plbeton.dk,.dk,,
BYGGEBJERG BETON A/S ,Byggebjerg 10 ,6534 Agerskov ,,28850 Torrejn De Ardoz - Madrid ,,,,www.byggebjerg.dk,.dk,,
CARSTEN BORG BETONVAREFABRIK A/S ,,Nrrefoldvej 12 ,,Pontevedra ,,,mail@borgbeton.dk ,www.borgbeton.dk,.dk,,
DS ELCOBYG A/S ,Hadsundvej 8 ,9500 Hobro ,,46900 Torrent - Valencia ,,,,www.ds-elcobyg.dk,.dk,,
EXPAN A/S ,Skomagervej 11 C ,7100 vejle ,,26200 Haro - La Rioja ,,,,www.expan.dk,.dk,,
FRUP BETONINDUSTRI A/S ,Krvej 1 ,8990 Frup ,,33080 Oviedo - Asturias ,,,,www.faarup-beton.dk,.dk,,
GAMMELRAND BETON A/S ,Gl. Skovvej 6A ,4470 Sveblle ,,Parque Empresarial Carballifio ,,,,www.gammelrand.dk,.dk,,
GANDRUP ELEMENT ,Teglvrksvej 35 ,9362 Gandrup ,,32500 Carballifio - Ourense ,,,,www.gandrup-element.dk,.dk,,
GIVE ELEMENTFABRIK A/S ,Hjortsvangen 19 ,7323 Give ,,45600 Talavera De La Reina - ,,,,www.elementer.dk,.dk,,
GRINDSTED BETONVAREFABRIK A/S ,,Heimdalsvej 7 ,,45600 Talaverade La Reina ,,,gb@gbrf.dk ,www.gbrf.dk,.dk,,
S.E. BETON A/S ,Fabriksparken 2 ,9230 Svenstrup J. ,,28033 Madrid - Madrid ,,,,www.sebeton.dk,.dk,,
SIMESTED CEMENTSTBERI APS ,Eveldrupvej 30 Simested ,9620 Aalestrup ,,28801 Alcal De Henares - Madrid ,,,,www.simested-cement.dk,.dk,,
BETON A/S ,Industrivej 1 a ,7900 Nykbing M ,,22270 Almudvar - Huesca ,,,,www.lethbeton.dk,.dk,,
BETON A/S ,Industrivej 1 a ,7900 Nykbing M ,,22270 Almudvar - Huesca ,,,,www.lethbeton.dk,.dk,,
PEIKKO FINLAND OY ,Voimakatu 3 PL 104 ,15101 Lahti ,,Alicante ,,,,www.peikko.com,com,,
PEIKKO FINLAND OY ,Voimakatu 3 PL 104 ,15101 Lahti ,,Alicante ,,,,www.peikko.com,com,,
PEIKKO FINLAND OY ,Voimakatu 3 PL 104 ,15101 Lahti ,4711-906 Braga ,www.peikko.com ,,,,www.peikko.com,com,,
PEIKKO FINLAND OY ,Voimakatu 3 PL 104 ,15101 Lahti ,4711-906 Braga ,www.peikko.com ,,,,www.peikko.com,com,,
BETON A/S ,Industrivej 1 a ,7900 Nykbing M ,Canhestro - Pousos ,,,,,www.lethbeton.dk,.dk,,
PREFABBRICATI ZECCA SUD SPA ,Loc. Case Molino ,64020 Castellalto TE ,,www.zecca.com ,,,,www.zecca.com,com,,
PREGECO PREFABBRICATI SPA ,Viale del Lavoro 11/A - Z.l. ,37069 Villafranca di Verona VR ,,www.pregeco.it ,,,,www.pregeco.it,.it,,
PRELCO ITALIA SRL ,Via Levate 50/A ,25018 Montichiari BS ,,www.prelcoitalia.it ,,,,www.dolmensrlingegneria.it,.it,,
SAR COSTRUZIONI PREFABBRICATE SRL ,,Via Cavour 89 ,,info@sarprefabbricati.it ,,,,sarprefabbricati.it,.it,,
SEIEFFE PREFABBRICATI SPA ,S.S. 7 Km 240+300 ,82013 Bonea BN ,,www.seieffeprefabbricati.it ,,,,www.seieffeprefabbricati.it,.it,,
MORETTA PREFABBRICATI DI MORETTA G. & C. SNC ,,Via Nazionale 4 ,,morettap@iol.it ,,,,www.morettaprefabbricati.it,.it,,
MORETTI PREFABBRICATI SRL ,Via Gandhi 9 ,25030 Erbusco BS ,,www.morettispa.it ,,,,www.morettiprefabbricati.it,.it,,
MOZZO PREFABBRICATI SRL ,Loc. Campagnola - V. Spartidori 4 ,37050 Santa Maria di Zevio VR ,,www.mozzoprefabbricati.it ,,,,www.mozzoprefabbricati.it,.it,,
MUSILLI SPA ,Via Casilina Km 147+700 ,03040 San Vittore del Lazio FR ,,www.musilli.it ,,,,www.musilli.it,.it,,
NUOVA TESI SYSTEM SRL ,Via delle Industrie 3 ,31032 Casale sul Sile TV ,,www.tesisystem.it ,,,,www.tesisystem.it,.it,,
MC-MANINI PREFABBRICATI SPA ,Strada Provinciale 223 N. 1 ,26867 Somaglia LO ,,www.mc-manini.it ,,,,www.mc-manini.it,.it,,
EDILCEMENTO SPA ,Via Dei Cinque Colli 74 ,06024 Gubbio PG ,,www.edilcemento.com ,,,,www.edilcemento.com,com,,
G.E.D. SRL ,Via Comunale Larga 721 ,47020 Pievesestina - Cesena FC ,,www.ged.fc.it ,,,,www.ged.fc.it,.it,,
CEMENTAL SPA ,Via Orianasso 1 ,12040 Genola CN ,,www.cemental.it ,,,,www.cemental.it,.it,,
CREZZA SRL ,Via Barona 4 ,23020 Gordona SO ,,www.crezza.com ,,,,www.crezza.com,com,,
CSP PREFABBRICATI SPA ,Via Provinciale I/A ,24050 Ghisalba BG ,,www.csppref.it ,,,,www.cspmagazine.it,.it,,
AREA PREFABBRICATI SPA S.S. 467 N. 116 ,,42013 S. Antonino di Casalgrande RE ,,www.areaprefabbricati.it ,,,,www.areaprefabbricati.it,.it,,
BARACLIT SPA ,S.S. 71 - Loc. Pianacci 19 ,52012 Bibbiena Stazione AR ,,www.baraclit.it ,,,,www.baraclit.it,.it,,
BATTILANA PREFABBRICATI SPA ,Via Monte Cengio 76 ,36073 Cornedo Vicentino VI ,,www.battilana.com ,,,,www.battilana.com,USA,,
American Concrete Products Co.,,,Omaha Nebraska,,(402)331-5775,,,http://www.enterprise-properties.com,USA,,
Armtec Infrastructure Inc. - Richmond BC,,,Richmond British Columbia,,(604)214-3243,,,http://www.armtec.com,USA,,
ATMI Precast,,,Aurora Illinois,,(630)896-4679,,,http://www.atmiprecast.com,USA,,
Blakeslee Prestress Inc.,,,Branford Connecticut,,(203)481-5306,,,http://www.blakesleeprestress.com,USA,,
Boccella Precast LLC,,,Berlin New Jersey,,(856)767-3861,,,http://www.boccellaprecast.com,USA,,
Bristol Group Inc.,,,Lexington Kentucky,,(859)233-9050,,,http://www.bristolgrp.com,USA,,
Carr Concrete Corporation,,,Williamstown West Virginia,,(304)464-4441,,,http://www.carrconcrete.com,USA,,
Clark Pacific,,,West Sacramento California,,(916)371-0305,,,http://www.clarkpacific.com,USA,,
Clark Pacific / Fontana,,,Fontana California,,(909)823-1433,,,http://www.clarkpacific.com,USA,,
Clark Pacific / Woodland,,,Woodland California,,(530)207-4100,,,http://www.clarkpacific.com,USA,,
Concrete Technology Corporation,,,Tacoma Washington,,(253)383-3545,,,http://www.concretetech.com,USA,,
Conewago Precast Building Systems,,,Hanover Pennsylvania,,(717)632-7722,,,http://www.conewago.com,USA,,
Con-Fab California Corporation,,,Shafter California,,(661)630-7162,,,http://www.confabca.com,USA,,
Con-Fab California Corporation,,,Lathrop California,,(209)249-4700,,,http://www.confabca.com,USA,,
County Materials Corporation,,,Roberts Wisconsin,,(800)426-1126,,,http://www.countymaterials.com,USA,,
County Materials Corporation,,,Janesville Wisconsin,,(608)373-0950,,,www.countymaterials.com,USA,,
County Materials Corporation,,,Champaign Illinois,,(217)352-4181,,,http://www.countymaterials.com,USA,,
County Materials Corporation,,,Salem Illinois,,(618)548-1190,,,http://www.countymaterials.com,USA,,
http://www.countymaterials.com,,,Eau Claire Wisconsin,,(715)834-7701,,,http://www.countymaterials.com,USA,,
Crest Precast Inc.,,,La Crescent Minnesota,,(800)658-9045,,,http://www.crestprecastconcrete.com,USA,,
CTU Precast,,,Olivehurst California,,(530)749-6501,,,http://www.ctuprecast.com,USA,,
David Kucera Inc.,,,Gardiner New York,,(845)255-1044,,,http://www.davidkucerainc.com,USA,,
Enterprise Concrete Products LLC,,,Dallas Texas,,(214)631-7006,,,http://www.enterpriseprecast.com,USA,,
Enterprise Precast Concrete Inc.,,,Omaha Nebraska,,(402)895-3848,,,http://www.enterpriseprecast.com,USA,,
Fabcon Precast LLC,,,Mahanoy City Pennsylvania,,(952)890-4444,,,http://www.fabcon-usa.com,USA,,
http://www.fabcon-usa.com,,,Savage Minnesota,,(952)890-4444,,,http://www.fabcon-usa.com,USA,,
Fabcon Precast LLC,,,Grove City Ohio,,(952)890-4444,,,http://www.fabcon-usa.com,USA,,
Florence Concrete Products Inc.,,,Sumter South Carolina,,(803)775-4372,,,http://www.fcpsumter.com,USA,,
Gate Precast Company,,,Kissimmee Florida,,(407)847-5285,,,http://www.gateprecast.com,USA,,
Gate Precast Company,,,Ashland City Tennessee,,(615)792-4871,,,http://www.gateprecast.com,USA,,
Gate Precast Company,,,Oxford North Carolina,,(919)603-1633,,,http://www.gateprecast.com,USA,,
Gate Precast Company,,,Jacksonville Florida,,(904)757-0860,,,http://www.gateprecast.com,USA,,
Gate Precast Company,,,Hillsboro Texas,,(254)582-7200,,,http://www.gateprecast.com,USA,,
Gate Precast Company,,,Jacksonville Florida,,(904)737-7220,,,http://www.gateprecast.com,USA,,
Gate Precast Company,,,Monroeville Alabama,,(251)575-2803,,,http://www.gateprecast.com,USA,,
Gate Precast Company,,,Winchester Kentucky,,(859)744-9481,,,http://www.gateprecast.com,USA,,
Hanson Pipe & Precast - Pelham Precast,,,Pelham Alabama,,(205)663-4681,,,http://www.hansonpipeandprecast.com,USA,,
Harper Contracting dba Harper Precast,,,Salt Lake City Utah,,(801)326-1016,,,http://www.harperprecast.com,USA,,
http://www.highconcrete.com,,,Springboro Ohio,,(937)748-2412,,,http://www.highconcrete.com,USA,,
High Concrete Group LLC,,,Denver Pennsylvania,,(717)336-9300,,,http://www.highconcrete.com,USA,,
International Concrete Products Inc.,,,Germantown Wisconsin,,(262)242-7840,,,http://www.internationalconcrete.com,USA,,
Joseph P. Carrara & Sons Inc.,,,Middlebury Vermont,,(802)388-6363,,,http://www.jpcarrara.com,USA,,
Kerkstra Precast Inc.,,,Grandville Michigan,,(616)224-6176,,,http://www.kerkstra.com,USA,,
Lakelands Concrete Products Inc.,,,Lima New York,,(585)624-1990,,,http://www.lakelandsconcrete.com,USA,,
Larry E. Knight Inc.,,,Glyndon Maryland,,(410)833-7800,,,http://www.knightprecast.com,USA,,
Lowe Precast Inc.,,,Waco Texas,,(254)776-9690,,,http://www.loweprecast.com,USA,,
Manco Structures Ltd.,,,Schertz Texas,,(210)690-1705,,,http://www.manco-satx.com,USA,,
Mid South Prestress LLC,,,Pleasant View Tennessee,,(615)746-6606,,,http://www.midsouthprestress.com,USA,,
Mid-States Concrete Industries,,,South Beloit Illinois,,(815)389-2277,,,http://www.msprecast.com,USA,,
Molin Concrete Products Company,,,Lino Lakes Minnesota,,(651)786-7722,,,http://www.molin.com,USA,,
MPC Enterprises Inc.,,,Mount Pleasant Iowa,,(319)986-2226,,,http://www.mpcent.com,USA,,
Newcrete Products a division of New Enterprise Stone & Lime Co. Inc.,,,Roaring Spring Pennsylvania,,(814)224-2121,,,http://www.newcrete.com,USA,,
Oldcastle Building Systems Div. / Project Services,,,Selkirk New York,,(518)767-2116,,,http://www.oldcastlesystems.com,USA,,
Oldcastle Precast,,,Avon Connecticut,,(860)673-3291,,,http://www.oldcastleprecast.com,USA,,
Oldcastle Precast Building Systems,,,Edgewood Maryland,,(800)523-3747,,,http://www.oldcastlesystems.com,USA,,
Oldcastle Precast Inc.,,,Stockton California,,(209)466-4215,,,http://www.oldcastleprecast.com,USA,,
Oldcastle Precast Inc.,,,Rehoboth Massachusetts,,(508)336-7600,,,http://www.oldcastleprecast.com,USA,,
Oldcastle Precast Inc.,,,Auburn Maine,,(207)784-9144,,,http://www.oldcastleprecast.com,USA,,
PDM Precast Inc.,,,Des Moines Iowa,,(515)243-5118,,,http://www.pdmprecast.com,USA,,
Precast Specialties Inc.,,,Monroeville Indiana,,(260)623-6131,,,http://www.precastspec.com,USA,,
Prefab de Beauce,,,Alma Quebec,,(418)668-6161,,,http://bpdl.com,USA,,
http://www.rotondoweirich.com,,,Hot Springs Arkansas,,(215)256-7940,,,http://www.rotondoweirich.com,USA,,
Say-Core Inc.,,,Portage Pennsylvania,,(814)736-8018,,,http://www.hollowcoreplank.com/,USA,,
Spancrete,,,Valders Wisconsin,,(920)775-4121,,,http://www.spancrete.com,USA,,
Spancrete Southeast Inc.,,,Sebring Florida,,(863)655-1515,,,http://www.spancrete.com,USA,,
Standard Concrete Products Inc.,,,Atlanta Georgia,,(404)792-1600,,,http://www.standardconcrete.net,USA,,
Standard Concrete Products Inc.,,,Tampa Florida,,(813)831-9520,,,http://www.standardconcrete.net,USA,,
Standard Concrete Products Inc.,,,Savannah Georgia,,(912)233-8263,,,http://www.standardconcrete.net,USA,,
Stonco Inc.,,,Omaha Nebraska,,(402)556-5544,,,http://www.enterprise-properties.com,USA,,
Structural Prestressed Industries Inc.,,,Medley Florida,,(305)556-6699,,,http://www.spimiami.com,USA,,
Tindall Corporation,,,Conley Georgia,,(404)366-6270,,,http://www.tindallcorp.com,USA,,
Tindall Corporation Corrections Division Georgia,,,Conley Georgia,,(404)366-6270,,,http://www.tindallcorp.com,USA,,
Tindall Corporation Mississippi Division,,,Moss Point Mississippi,,(228)246-0800,,,http://www.tindallcorp.com,USA,,
Tindall Corporation South Carolina Division,,,Spartanburg South Carolina,,(864)576-3230,,,http://www.tindallcorp.com,USA,,
Tindall Corporation Texas Division,,,San Antonio Texas,,(210)248-2345,,,http://www.tindallcorp.com,USA,,
Tindall Corporation Virginia Division,,,Petersburg Virginia,,(804)861-8447,,,http://www.tindallcorp.com,USA,,
Tpac A Div. of Kiewit Western Co.,,,Phoenix Arizona,,(602)262-1360,,,http://www.tpacaz.com,USA,,
U.S. Concrete Precast Group Mid-Atlantic,,,Middleburg Pennsylvania,,(570)837-1774,,,http://www.us-concreteprecast.com,USA,,
United Concrete Products Inc.,,,Yalesville Connecticut,,(203)269-3119,,,http://www.unitedconcrete.com,USA,,
Universal Concrete Products Corp.,,,Stowe Pennsylvania,,(610)323-0700,,,http://www.universalconcrete.com,USA,,
Universal Precast Concrete Inc.,,,Redding California,,(530)243-6477,,,http://www.universalprecast.com,USA,,
Utility Concrete Products LLC,,,Morris Illinois,,(815)416-1000,,,http://www.utilityconcrete.com,USA,,
Utility Precast Inc.,,,Concord North Carolina,,(704)721-0106,,,http://www.utilityprecastinc.com,USA,,
Wausau Tile Inc.,,,Wausau Wisconsin,,(715)359-3121,,,http://www.wausautile.com,USA,,
Wells Concrete,,,Albany Minnesota,,(320)845-2229,,,http://www.wellsconcrete.com,USA,,
Wells Concrete,,,Wells Minnesota,,(800)658-7049,,,http://www.wellsconcrete.com,USA,,
Wells Concrete,,,Grand Forks North Dakota,,(701)772-6687,,,http://www.wellsconcrete.com,USA,,
Willis Construction Co. Inc.,,,San Juan Bautista California,,(831)623-2900,,,http://www.pre-cast.org,USA,,
Betons Prefabriques Du Lac Inc.,,,Alma,,,,,www.bpdl.com,,,
Enterprise Precast Concrete of Texas LLC,,,Corsicana Texas,,(903)875-1077,,,www.enterpriseprecast.com,,,
Precast Systems Inc.,,,Allentown New Jersey,,(609)208-1987,,,www.precastsystemsinc.net,,,
Stonecast Products Inc.,,,Germantown Wisconsin,,(262)253-6600,,,www.stonecastproducts.com,,,
